GLOBALSTAR M024         
1 25883U 99043A   24208.60310222  .00000000  00000+0  22869-2 0  9991
2 25883  52.0037  35.2486 0000758 320.0768  65.8072 11.10159313 78704
GLOBALSTAR M027         
1 25884U 99043B   24208.37938787 -.00000094  00000+0 -11364-2 0  9991
2 25884  52.0211 104.5055 0020737 184.2650 175.7968 11.04369098105241
GLOBALSTAR M054         
1 25885U 99043C   24208.62140830 -.00000010  00000+0  15614-2 0  9993
2 25885  52.0141 285.9047 0004620 343.4884 162.6111 11.39210711 81940
GLOBALSTAR M053         
1 25886U 99043D   24208.51684942 -.00000064  00000+0  13089-3 0  9993
2 25886  51.9940 215.1787 0003797 251.3452 276.1333 11.27657329 82848
GLOBALSTAR M058         
1 25907U 99049A   24208.85857641 -.00000077  00000+0  10419-3 0  9996
2 25907  51.9927 257.8784 0001948  12.6522 347.4361 11.93179097113919
GLOBALSTAR M050         
1 25908U 99049B   24208.39031631  .00000045  00000+0  15048-2 0  9995
2 25908  51.9996 291.1450 0009545 104.6177 332.4909 12.07437116108838
GLOBALSTAR M033         
1 25909U 99049C   24208.34914458 -.00000099  00000+0 -69333-4 0  9997
2 25909  51.9891 185.5965 0012820 317.1037  42.8810 12.20273733495960
GLOBALSTAR M055         
1 25910U 99049D   24208.48316340 -.00000089  00000+0  44589-4 0  9994
2 25910  51.9986 211.8171 0007064 175.7616 184.3296 12.29405141128449
